#dP2021  1 15  0  0  0.00000000      97 __u+U IGS14 FIT  IAC
## 2140 432000.00000000   900.00000000 59229 0.0000000000000
+  121   C01C02C03C04C05C06C07C08C09C10C11C12C13C14C16C19C20
+        C21C22C23C24C25C26C27C28C29C30C32C33C34C35C36C37C38
+        C39C40C43C44C45C46E01E02E03E04E05E07E08E09E11E12E13
+        E14E15E18E19E21E24E25E26E27E30E31E33E36G01G02G03G04
+        G05G06G07G08G09G10G11G12G13G14G15G16G17G18G19G20G21
+        G22G23G24G25G26G27G28G29G30G31G32J01J02J03J07R01R02
+        R03R04R05R07R08R09R11R12R13R14R15R16R17R18R19R20R21
+        R22R24  0  0  0  0  0  0  0  0  0  0  0  0  0  0  0
++        13 13 13 13 14  8  8  8  0  8  8  8  8  7  8  7  7
++         8  7  7  7  7  7  7  7  8  7  7  8  8  8  8  7  9
++        11 10  8  9  9  9  4  5  4  4  4  4  4  4  4  4  4
++         4  4  4  5  4  4  4  4  4  5  4  4  4  3  3  3  4
++         4  3  3  3  3  3  4  3  3  3  3  4  3  3  4  3  3
++         3  3  3  3  4  3  3  3  3  4  3  8  8  8 13  6  6
++         6  6  6  5  5  5  8  6  6  5  5  6  6  6  6  6  6
++         7  6  0  0  0  0  0  0  0  0  0  0  0  0  0  0  0
%c M  cc GPS ccc cccc cccc cccc cccc ccccc ccccc ccccc ccccc
%c cc cc ccc ccc cccc cccc cccc cccc ccccc ccccc ccccc ccccc
%f  1.2500000  1.025000000  0.00000000000  0.000000000000000
%f  0.0000000  0.000000000  0.00000000000  0.000000000000000
%i    0    0    0    0      0      0      0      0         0
%i    0    0    0    0      0      0      0      0         0
/* INFORMATION & ANALYSIS CENTER (IAC)            FINAL DATA
/* S/V CLOCKS ARE ALIGNED TO GNSS TIME                      
/* G:C1WC2W R:C1PC2P E:C1XC5X C:C2IC6I J:C1CC2S             
/* PCV:IGS14_2134 OL/AL:FES2004  NONE     YN ORB:CoN CLK:CoN
*  2021 01 15 14 30  0.00000000
PC01 -34287.086642  24550.000749     99.805342   -670.033895
PC02   4326.655485  41926.383556   -557.245858    592.136686
PC03 -14800.659084  39441.562199    350.068587   -516.550591
PC04 -39622.088017  14423.441150    656.275821   -410.347844
PC05  21834.204764  36053.753022   -921.301592   -557.548091
PC06 -10964.723340  21925.586285 -33891.892505      7.446540
PC07 -21607.413471  32288.122113  15982.537526   -229.671046
PC08  -8719.644796  37199.088197  18356.185330   -898.777452
PC09      0.000000      0.000000      0.000000 999999.999999
PC10 -10113.683948  32591.547781  24700.835433   -103.627213
PC11   4808.191884  19739.526121  19218.810297   -887.987134
PC12 -12882.872471   9215.381112  23014.801754    731.503277
PC13    400.096301  42100.990372   4411.014468     98.925835
PC14  -5923.309536  18061.538699 -20392.728956    -90.785665
PC16  -9143.070551  22416.636840 -34440.231219   -660.794125
PC19  -4794.945629 -15211.952973  22920.529815    691.858490
PC20  14426.659316 -18093.223564  15625.337167   -909.520629
PC21 -25922.458708  10221.672737   1374.616251   -794.130854
PC22 -21769.161561  -3461.105212  17099.622380   -845.598003
PC23  14110.537699  10852.534285  21492.561384   -881.344160
PC24  -8788.264056  25340.747921  -7778.206054   -742.347311
PC25   4837.281358  25487.162125  10309.565212   -898.283958
PC26 -15583.918139  11422.731815 -20157.208353    962.586692
PC27  20138.652734  -1283.414873 -19279.932080    466.842202
PC28  23616.304561  14105.820543  -4705.985465   -121.429452
PC29 -14020.488242 -20625.185164 -12527.074203    338.925418
PC30   4757.107000 -15765.080517 -22531.141372    431.569509
PC32  25850.963976 -10426.075491  -1363.603229   -883.733656
PC33   4808.599592  15233.025576 -22879.182251   -916.172982
PC34  -4199.150362  16129.713513  22375.278430   -762.573583
PC35 -24060.768808 -13461.093266   4437.457836   -464.470900
PC36  -4026.157547 -25718.093330 -10025.096583   -776.550322
PC37  15977.004588 -10118.829680  20525.159274   -860.644529
PC38  -8406.908789  38040.673563  16304.565866    124.058910
PC39  -5753.886221  23709.856850 -34378.336999     27.445647
PC40 -19580.753055  28869.120500  23601.839905    121.510817
PC43  13484.332931  20770.165509  12841.809963   -553.233229
PC44 -20303.536592   1814.380386  19071.671095    -12.057817
PC45 -14052.498635 -10705.750702 -21595.672937    335.945944
PC46   8211.122310 -25695.633316   7060.245740    451.015739
PE01  21336.432581 -13494.393420  15443.997845  -1025.322451
PE02 -21344.909617  13621.232638 -15351.518552    191.230579
PE03 -27820.776930   4744.313791  -8916.531259   -387.620432
PE04  12863.226924 -14932.797730  22083.062078   -689.378762
PE05 -26681.549513  -8389.019206   9688.096874   -312.692254
PE07   9982.672535  16499.080341 -22458.962608   -488.012420
PE08 -12449.755858  14972.467022 -22295.677576   6061.657912
PE09 -10221.582130 -16282.232923  22502.056386   5798.239078
PE11 -11101.884498 -27169.669298  -3895.160978   6466.196242
PE12   4126.204233 -21121.237999 -20321.381582   5405.468785
PE13  10937.806702  27165.912179   4308.856989    410.304079
PE14  -4103.347917  14392.895307  18160.959780  -1295.645523
PE15  -3975.909773  21129.523127  20357.810045    834.151093
PE18   9160.165740 -18571.785002 -25000.538280  -1416.053319
PE19  28614.743887  -3184.482371   6859.290631    179.062075
PE21  15766.728778   5801.128026  24368.459706   -642.996861
PE24   -329.703774 -22682.352246 -19009.412831   -690.969150
PE25 -15678.426361  -5956.404211 -24385.834635   -524.379153
PE26  19494.069279  16702.108586 -14730.078010   2262.333603
PE27    887.927515  22361.276370  19386.040960     50.589809
PE30 -15005.048519  25423.825935   2313.346988   3260.847024
PE31  14417.486566 -25665.531130  -3035.046707   -477.383322
PE33  16520.911336  -2676.444461 -24400.478770   -464.885120
PE36 -19408.236101 -17213.040247  14269.543269    453.901642
PG01 -14636.622301   1568.521726  21882.769340    779.733302
PG02  13898.838527  20040.929010  -9841.590712   -566.261120
PG03 -21669.809573  10849.915405  10671.553260    -56.968740
PG04 -24342.724924    106.067218 -10680.186352   -172.915603
PG05  14495.146900   6732.754182 -21390.716614    -31.058371
PG06   5378.994599  25931.012448   1725.445785     -4.569226
PG07  -8503.363787  17579.651518 -17443.367800     22.574518
PG08 -26125.171966  -4735.952004   3023.845412     -6.690822
PG09 -16154.269461   9588.826077 -18847.158264   -313.003695
PG10   7705.195961 -21091.384752  14075.949831    -39.745270
PG11 -20556.653276  -5288.429199  15293.573548    -52.296383
PG12  21752.654696  -6472.133429  13424.757825     12.595938
PG13  22319.462840  13552.916692  -5335.244069     86.191872
PG14 -10433.237451  20984.390172  12489.816935     85.795824
PG15  26440.422968   1822.854746   3310.700660   -176.156321
PG16 -12974.406909  -8505.903326 -21842.254959   -265.468950
PG17   1620.107317  15855.378345  21682.014827    380.557038
PG18   6888.739751 -19884.651432 -16174.721715    341.415739
PG19   9868.317664  16770.685262  17835.430158    -51.577174
PG20  14951.379386 -21682.343511   1929.183465    525.154324
PG21 -17135.361978  -6707.204770  20031.829511     87.031717
PG22 -19899.114883   3617.589019  17329.553355   -697.747984
PG23  15997.286896 -20720.549193   4349.836273    116.141485
PG24  16719.363396   3044.219177  20257.204783      3.640799
PG25  19682.904490 -17490.249082   1761.026402     60.291445
PG26  -3898.759861 -16978.815317 -20024.370364     30.303778
PG27 -21753.458534 -12606.666986  -9260.781883    -56.534912
PG28  -7951.322698  20271.935580  15902.016913    629.369449
PG29  17322.298301  -7092.075119 -18898.326055   -276.274402
PG30  -1207.343332  24833.467464  -8983.448098   -369.327462
PG31  -6612.607310 -25435.191207  -1171.646204    -94.048798
PG32  -3352.453777 -16192.824913  20907.959943     14.414849
PJ01 -35474.926002  18082.569046  -9169.566518   -336.625082
PJ02 -25604.897904  31539.069071  -6663.088902      0.760568
PJ03 -25291.714905  23519.720528  29280.645842     -0.123766
PJ07 -25393.542418  33665.226699    -22.026786      0.054868
PR01  11729.714177 -12327.090461  19004.787347     73.522132
PR02 -10878.526267  -8077.119475  21661.458235    462.970831
PR03 -23567.467559    511.926909   9852.553158     29.195005
PR04 -22821.345933   8668.012448  -7391.562990     70.086361
PR05  -9389.418303  11921.049226 -20505.181944     64.784707
PR07  23744.479785   -853.729831  -9186.002001    -42.179256
PR08  22752.629907  -8761.996338   7508.971882    -56.864884
PR09   3509.769187  18232.045544  17472.799370     18.722057
PR11  12299.823336 -16229.088346  15374.622787      4.519895
PR12   6694.605290 -24540.308994  -1674.113251    196.871769
PR13  -3110.188266 -18529.313965 -17268.325890    -49.336408
PR14 -11162.140736  -1224.162729 -22894.617598     59.878742
PR15 -12566.987228  16327.229242 -15027.476522    105.875478
PR16  -5739.743965  24796.580366   2532.341600    -10.242168
PR17 -18704.312269 -11983.106303  12520.679913    391.475820
PR18 -11857.906093   2004.891502  22524.525720     63.248393
PR19    392.213021  14661.839070  20877.532463   -128.012299
PR20  14382.523982  20350.388078   5358.378002   -431.195219
PR21  18497.335585  11307.725804 -13454.478096   -180.581945
PR22  10976.757036  -3046.377110 -22817.802880    -92.631386
PR24 -14957.539614 -20146.508259  -4531.234619     27.879571
EOF
